CHUBUSAT-3              
1 41339U 16012C   21065.52415117  .00000526  00000-0  33828-4 0  9991
2 41339  31.0118 117.7184 0013227 202.1605 157.8469 15.00611205277126
HORYU-4                 
1 41340U 16012D   21065.46852783  .00000809  00000-0  53961-4 0  9994
2 41340  31.0052 102.8913 0013763 230.2440 129.6983 15.01769617277292
OUFTI-1                 
1 41458U 16025C   21064.82903234  .00002671  00000-0  13234-3 0  9992
2 41458  98.1263 195.8221 0160877  49.5146 311.9975 15.08098611266850
E-ST@R-II               
1 41459U 16025D   21065.42181203  .00003315  00000-0  16496-3 0  9993
2 41459  98.1248 195.6247 0162203  50.2922 311.2472 15.07573446266898
AAUSAT 4                
1 41460U 16025E   21065.32090947  .00003483  00000-0  16628-3 0  9991
2 41460  98.1241 198.8952 0149857  35.9942 325.1310 15.10385180267147
AIST-2D (RS-48)         
1 41465U 16026B   21065.53795205  .00003183  00000-0  93521-4 0  9994
2 41465  97.1211 313.1119 0012321  33.7482  83.6138 15.35763859271638
SAMSAT-218D             
1 41466U 16026C   21065.52247398  .00020260  00000-0  33889-3 0  9994
2 41466  97.1644 334.0400 0004360 338.6088 195.1659 15.51914774272851
NUSAT-1 (FRESCO)        
1 41557U 16033B   21065.52789531  .00002976  00000-0  10827-3 0  9994
2 41557  97.3929 160.0940 0011740 234.5867 180.8456 15.28978855265802
NUSAT-2 (BATATA)        
1 41558U 16033C   21065.53889185  .00003333  00000-0  11348-3 0  9999
2 41558  97.4020 163.4608 0010782 228.0795 189.1204 15.31065735265976
CARTOSAT-2C             
1 41599U 16040A   21065.51590765 -.00007218  00000-0 -33909-3 0  9998
2 41599  97.4134 126.8618 0015010  19.5015  89.7061 15.19225003260881
SATHYABAMASAT           
1 41600U 16040B   21065.12428148  .00002789  00000-0  11230-3 0  9992
2 41600  97.2866 125.0269 0012573 351.1393   8.9622 15.25622871261396
LAPAN-A3                
1 41603U 16040E   21065.50835838  .00000316  00000-0  17714-4 0  9993
2 41603  97.2712 116.2644 0013490  12.1934 126.4615 15.19973279260944
BIROS                   
1 41604U 16040F   21064.81901619  .00000930  00000-0  43144-4 0  9996
2 41604  97.2781 120.6403 0011837 354.0625   6.0469 15.22402429261131
SWAYAM                  
1 41607U 16040J   21064.73331663  .00002938  00000-0  11926-3 0  9998
2 41607  97.2821 123.5549 0012255 352.8682   7.2380 15.25308143261233
BEESAT-4                
1 41619U 16040W   21064.67408020  .00002713  00000-0  11140-3 0  9995
2 41619  97.2842 123.6294 0010116 347.3598  12.7385 15.25009707249197
3CAT-2                  
1 41732U 16051B   21065.49010632  .00002475  00000-0  91786-4 0  9992
2 41732  97.3778 346.6846 0013840 146.2058 268.8563 15.28480018253778
PRATHAM                 
1 41783U 16059A   21064.72085817  .00000075  00000-0  23548-4 0  9993
2 41783  97.9799 118.3044 0032911 211.0299 148.8960 14.63116759237085
ALSAT 1N                
1 41789U 16059G   21065.40004816  .00000122  00000-0  31770-4 0  9994
2 41789  97.9834 122.4045 0028136 193.7581 166.2860 14.64394233237362
LISHUI 1-01             
1 41845U 16066E   21065.51444347  .00013961  00000-0  17795-2 0  9998
2 41845  98.7278 163.5817 0276105  78.0722 285.1314 14.58296007228393
CARTOSAT-2D             
1 41948U 17008A   21065.06934488  .00000910  00000-0  46414-4 0  9991
2 41948  97.4556 126.8195 0008128 150.7632 209.4076 15.19228604224687
NAYIF-1 (EO-88)         
1 42017U 17008BX  21064.75789630  .00003010  00000-0  11416-3 0  9998
2 42017  97.3275 134.1950 0007712 112.2985 247.9073 15.27612911225429
ZHUHAI-1 02 (CAS-4B)    
1 42759U 17034B   21065.32454095  .00000486  00000-0  42646-4 0  9992
2 42759  43.0176  28.0004 0010140 245.2811 267.9578 15.10097280205557
ZHUHAI-1 01 (CAS-4A)    
1 42761U 17034D   21065.32111764  .00000513  00000-0  44190-4 0  9995
2 42761  43.0184  27.1470 0010598 246.4463 266.4964 15.10178639205550
UCLSAT                  
1 42765U 17036A   21065.21983560  .00002336  00000-0  97985-4 0  9995
2 42765  97.2649 117.9923 0011194 173.7111 186.4270 15.24413986205853
NIUSAT                  
1 42766U 17036B   21065.39687821  .00001757  00000-0  78804-4 0  9991
2 42766  97.2652 114.8902 0015434 172.4159 187.7314 15.22392331205536
CARTOSAT-2E             
1 42767U 17036C   21065.47470607  .00005369  00000-0  25805-3 0  9998
2 42767  97.4575 125.0991 0008166 194.4074 165.6929 15.19211575205318
LITUANICASAT-2          
1 42768U 17036D   21064.79873112  .00003811  00000-0  15266-3 0  9991
2 42768  97.2719 118.0839 0014632 166.3788 193.7848 15.25538756205665
AALTO-1                 
1 42775U 17036L   21064.71086505  .00001544  00000-0  69636-4 0  9995
2 42775  97.2626 114.5208 0013787 173.3122 186.8301 15.22397033205419
URSA MAIOR              
1 42776U 17036M   21065.12469075  .00001618  00000-0  72349-4 0  9996
2 42776  97.2639 115.3295 0013650 171.3550 188.7925 15.22636971205499
COMPASS 2               
1 42777U 17036N   21064.80170597  .00003062  00000-0  12495-3 0  9999
2 42777  97.2703 118.3528 0012322 166.6971 193.4594 15.25094246205618
MAX VALIER SAT          
1 42778U 17036P   21064.85364623  .00001725  00000-0  75559-4 0  9995
2 42778  97.2701 116.8012 0012224 173.7285 186.4108 15.23272343205512
PEGASUS                 
1 42784U 17036V   21065.10632659  .00002084  00000-0  88711-4 0  9991
2 42784  97.2657 117.4584 0011703 176.0786 184.0545 15.24024627205614
NUDTSAT                 
1 42787U 17036Y   21064.90886999  .00002960  00000-0  11867-3 0  9999
2 42787  97.2716 119.3465 0009818 170.6630 189.4804 15.25734785205547
SUCHAI                  
1 42788U 17036Z   21064.69683582  .00002675  00000-0  11073-3 0  9991
2 42788  97.2665 117.9206 0011274 174.5576 185.5787 15.24729005205678
SKCUBE                  
1 42789U 17036AA  21064.77489771  .00002419  00000-0  10107-3 0  9998
2 42789  97.2660 117.7560 0011146 174.8437 185.2917 15.24502753205594
VZLUSAT-1               
1 42790U 17036AB  21064.77028212  .00003224  00000-0  12906-3 0  9993
2 42790  97.2691 119.2012 0010718 170.5544 189.5898 15.25721408205670
ROBUSTA-1B              
1 42792U 17036AD  21065.08755838  .00002430  00000-0  10086-3 0  9996
2 42792  97.2662 118.3992 0010778 173.5100 186.6280 15.24727631205670
D-SAT                   
1 42794U 17036AF  21065.04425220  .00000195  00000-0  22211-4 0  9993
2 42794  97.4710  90.3845 0125004 210.8711 148.5118 14.91470362201689
NORSAT 2                
1 42828U 17042D   21064.67019797  .00000688  00000-0  73398-4 0  9993
2 42828  97.4932 300.8515 0015412 128.0249 232.2364 14.91748478198262
TECHNOSAT               
1 42829U 17042E   21065.52434841  .00000380  00000-0  43418-4 0  9999
2 42829  97.4852 300.4330 0015359 127.0839 233.1787 14.91229624198344
2017-042F               
1 42830U 17042F   21065.44868227  .00000985  00000-0  10052-3 0  9999
2 42830  97.4961 302.6031 0015320 120.4179 239.8557 14.92673336198433
FLYING LAPTOP           
1 42831U 17042G   21065.02909283  .00000105  00000-0  15777-4 0  9996
2 42831  97.4863 300.1586 0015339 128.7605 231.4972 14.91250022198271
CORVUS BC2              
1 42846U 17042X   21064.63351465  .00000091  00000-0  14103-4 0  9997
2 42846  97.4890 301.8683 0010896 120.8353 239.3940 14.92239679198356
CORVUS BC1              
1 42847U 17042Y   21064.61140526  .00000399  00000-0  44149-4 0  9994
2 42847  97.4892 302.0656 0010525 120.0383 240.1882 14.92341935198350
SIMPL                   
1 42983U 98067NF  21065.52033987  .00009127  00000-0  96757-4 0  9994
2 42983  51.6375  61.6741 0003149 337.1923  22.8932 15.64934983191273
CZ-4C R/B               
1 43012U 17072C   21064.73245899  .00000083  00000-0  29120-4 0  9996
2 43012  98.7335  74.5549 0126606 310.0105  49.0033 14.56148492175648
RADFXSAT (FOX-1B)       
1 43017U 17073E   21064.71839572  .00001068  00000-0  88500-4 0  9998
2 43017  97.7145 332.7903 0254140 278.8593  78.3925 14.79365374177788
EAGLESAT 1              
1 43018U 17073F   21064.68762702  .00001832  00000-0  14538-3 0  9993
2 43018  97.7142 333.4873 0251101 276.1314  81.1346 14.80306915177693
ECAMSAT                 
1 43019U 98067NG  21065.49860883  .00025775  00000-0  18204-3 0  9991
2 43019  51.6416  35.3601 0002543 346.9440  13.1492 15.73853470273942
INS-1C                  
1 43116U 18004F   21065.49757344  .00002217  00000-0  92421-4 0  9999
2 43116  97.4229 140.9326 0008741 194.3364 165.7627 15.24731881174955
FLOCK 3P'-3             
1 43119U 18004J   21064.74803323  .00001533  00000-0  66250-4 0  9999
2 43119  97.4222 139.2322 0009324 206.0927 153.9842 15.23970818174785
FLOCK 3P'-2             
1 43120U 18004K   21064.70294927  .00001359  00000-0  59561-4 0  9994
2 43120  97.4229 139.0242 0009321 206.7370 153.3388 15.23689427174769
FLOCK 3P'-1             
1 43121U 18004L   21064.73094332  .00004841  00000-0  18973-3 0  9996
2 43121  97.4220 140.4746 0008695 201.2579 158.8299 15.26216280174790
FLOCK 3P'-4             
1 43122U 18004M   21065.42266790  .00001367  00000-0  59855-4 0  9998
2 43122  97.4237 139.8260 0009137 206.2629 153.8146 15.23715599174874
MICROMAS-2A             
1 43131U 18004W   21064.71854063  .00003751  00000-0  14579-3 0  9997
2 43131  97.4197 141.3150 0008141 199.2823 160.8109 15.26649828174934
PICSAT                  
1 43132U 18004X   21064.69170170  .00002707  00000-0  10998-3 0  9996
2 43132  97.4180 140.1579 0008555 204.4772 155.6061 15.25401640174868
CNUSAIL-1               
1 43133U 18004Y   21065.17980958  .00001851  00000-0  78145-4 0  9992
2 43133  97.4162 139.8348 0008590 205.2299 154.8520 15.24513064174886
2018-004Z               
1 43134U 18004Z   21064.65094079  .00002372  00000-0  97741-4 0  9997
2 43134  97.4174 139.8737 0008369 205.8011 154.2810 15.25050350174841
FOX-1D (AO-92)          
1 43137U 18004AC  21065.45273990  .00001951  00000-0  81342-4 0  9992
2 43137  97.4160 140.5190 0008201 204.1669 155.9185 15.24881238174958
